[{"OBJECT_NAME":"HAWK-11C","OBJECT_ID":"2024-247E","EPOCH":"2026-03-09T12:17:35.407968","MEAN_MOTION":15.2884802,"ECCENTRICITY":0.00059001,"INCLINATION":45.0045,"RA_OF_ASC_NODE":114.8762,"ARG_OF_PERICENTER":329.704,"MEAN_ANOMALY":30.3502,"EPHEMERIS_TYPE":0,"CLASSIFICATION_TYPE":"U","NORAD_CAT_ID":62381,"ELEMENT_SET_NO":999,"REV_AT_EPOCH":6774,"BSTAR":0.00033290115,"MEAN_MOTION_DOT":9.223e-5,"MEAN_MOTION_DDOT":0},{"OBJECT_NAME":"STARLINK-35148","OBJECT_ID":"2025-221X","EPOCH":"2026-03-09T10:41:59.616960","MEAN_MOTION":15.30198042,"ECCENTRICITY":0.00013784,"INCLINATION":53.1599,"RA_OF_ASC_NODE":89.6461,"ARG_OF_PERICENTER":71.1227,"MEAN_ANOMALY":288.9923,"EPHEMERIS_TYPE":0,"CLASSIFICATION_TYPE":"U","NORAD_CAT_ID":65844,"ELEMENT_SET_NO":999,"REV_AT_EPOCH":2469,"BSTAR":0.0010496373,"MEAN_MOTION_DOT":0.00030855,"MEAN_MOTION_DDOT":0}]
